{
  "type": "FeatureCollection",
  "features": [
    {
      "type": "Feature",
      "properties": {
        "norad_id": 43647,
        "name": "BEIDOU-3 M16 (C35)",
        "group": "gnss",
        "lat": 53.31597845619304,
        "lon": 21.53692648860026,
        "alt_km": 21512.38656583108,
        "timestamp": "2025-12-11T05:00:26.552706+00:00",
        "meta_object_name": "BEIDOU-3 M16 (C35)",
        "meta_object_id": "2018-078A",
        "meta_epoch": "2025-12-08T22:33:41.935680",
        "meta_mean_motion": 1.86232209,
        "meta_eccentricity": 0.0007116,
        "meta_inclination": 54.2656,
        "meta_ra_of_asc_node": 306.6541,
        "meta_arg_of_pericenter": 19.0293,
        "meta_mean_anomaly": 340.9862,
        "meta_ephemeris_type": 0,
        "meta_classification_type": "U",
        "meta_norad_cat_id": 43647,
        "meta_element_set_no": 999,
        "meta_rev_at_epoch": 4861,
        "meta_bstar": 0,
        "meta_mean_motion_dot": -7.5e-07,
        "meta_mean_motion_ddot": 0,
        "tle_line1": "1 43647U 18078A   25342.94006870 -.00000075  00000+0  00000+0 0  9999",
        "tle_line2": "2 43647  54.2656 306.6541 0007116  19.0293 340.9862  1.86232209 48612"
      },
      "geometry": {
        "type": "Point",
        "coordinates": [
          21.53692648860026,
          53.31597845619304
        ]
      }
    },
    {
      "type": "Feature",
      "properties": {
        "norad_id": 43648,
        "name": "BEIDOU-3 M15 (C34)",
        "group": "gnss",
        "lat": -4.598653464604235,
        "lon": -56.76062328744304,
        "alt_km": 21519.569422792127,
        "timestamp": "2025-12-11T05:00:26.552717+00:00",
        "meta_object_name": "BEIDOU-3 M15 (C34)",
        "meta_object_id": "2018-078B",
        "meta_epoch": "2025-12-09T14:32:59.144640",
        "meta_mean_motion": 1.86231871,
        "meta_eccentricity": 0.0003622,
        "meta_inclination": 54.2606,
        "meta_ra_of_asc_node": 306.6314,
        "meta_arg_of_pericenter": 18.0065,
        "meta_mean_anomaly": 341.9965,
        "meta_ephemeris_type": 0,
        "meta_classification_type": "U",
        "meta_norad_cat_id": 43648,
        "meta_element_set_no": 999,
        "meta_rev_at_epoch": 4864,
        "meta_bstar": 0,
        "meta_mean_motion_dot": -7.7e-07,
        "meta_mean_motion_ddot": 0,
        "tle_line1": "1 43648U 18078B   25343.60624010 -.00000077  00000+0  00000+0 0  9998",
        "tle_line2": "2 43648  54.2606 306.6314 0003622  18.0065 341.9965  1.86231871 48642"
      },
      "geometry": {
        "type": "Point",
        "coordinates": [
          -56.76062328744304,
          -4.598653464604235
        ]
      }
    },
    {
      "type": "Feature",
      "properties": {
        "norad_id": 43683,
        "name": "BEIDOU-3 G1 (C59)",
        "group": "gnss",
        "lat": -0.5713647316155768,
        "lon": -64.64130113145244,
        "alt_km": 35790.943663384816,
        "timestamp": "2025-12-11T05:00:26.552728+00:00",
        "meta_object_name": "BEIDOU-3 G1 (C59)",
        "meta_object_id": "2018-085A",
        "meta_epoch": "2025-12-10T21:03:25.390080",
        "meta_mean_motion": 1.00271192,
        "meta_eccentricity": 0.00018216,
        "meta_inclination": 2.6032,
        "meta_ra_of_asc_node": 103.0319,
        "meta_arg_of_pericenter": 65.5339,
        "meta_mean_anomaly": 7.2078,
        "meta_ephemeris_type": 0,
        "meta_classification_type": "U",
        "meta_norad_cat_id": 43683,
        "meta_element_set_no": 999,
        "meta_rev_at_epoch": 2617,
        "meta_bstar": 0,
        "meta_mean_motion_dot": -2.72e-06,
        "meta_mean_motion_ddot": 0,
        "tle_line1": "1 43683U 18085A   25344.87737720 -.00000272  00000+0  00000+0 0  9995",
        "tle_line2": "2 43683   2.6032 103.0319 0001821  65.5339   7.2078  1.00271192 26172"
      },
      "geometry": {
        "type": "Point",
        "coordinates": [
          -64.64130113145244,
          -0.5713647316155768
        ]
      }
    },
    {
      "type": "Feature",
      "properties": {
        "norad_id": 43687,
        "name": "COSMOS 2529 (757)",
        "group": "gnss",
        "lat": 23.657788358567185,
        "lon": 6.759997105735316,
        "alt_km": 19130.721866500025,
        "timestamp": "2025-12-11T05:00:26.552740+00:00",
        "meta_object_name": "COSMOS 2529 (757)",
        "meta_object_id": "2018-086A",
        "meta_epoch": "2025-12-10T01:40:33.584160",
        "meta_mean_motion": 2.13101882,
        "meta_eccentricity": 0.00072869,
        "meta_inclination": 64.2919,
        "meta_ra_of_asc_node": 198.9786,
        "meta_arg_of_pericenter": 254.1993,
        "meta_mean_anomaly": 105.7913,
        "meta_ephemeris_type": 0,
        "meta_classification_type": "U",
        "meta_norad_cat_id": 43687,
        "meta_element_set_no": 999,
        "meta_rev_at_epoch": 5525,
        "meta_bstar": 0,
        "meta_mean_motion_dot": 4.4e-07,
        "meta_mean_motion_ddot": 0,
        "tle_line1": "1 43687U 18086A   25344.06983315  .00000044  00000+0  00000+0 0  9990",
        "tle_line2": "2 43687  64.2919 198.9786 0007286 254.1993 105.7913  2.13101882 55254"
      },
      "geometry": {
        "type": "Point",
        "coordinates": [
          6.759997105735316,
          23.657788358567185
        ]
      }
    },
    {
      "type": "Feature",
      "properties": {
        "norad_id": 43706,
        "name": "BEIDOU-3 M17 (C36)",
        "group": "gnss",
        "lat": -48.71367614613549,
        "lon": 64.04847888636968,
        "alt_km": 21524.830536596728,
        "timestamp": "2025-12-11T05:00:26.552765+00:00",
        "meta_object_name": "BEIDOU-3 M17 (C36)",
        "meta_object_id": "2018-093A",
        "meta_epoch": "2025-12-10T13:45:05.408064",
        "meta_mean_motion": 1.86228361,
        "meta_eccentricity": 0.00062551,
        "meta_inclination": 54.1726,
        "meta_ra_of_asc_node": 188.6952,
        "meta_arg_of_pericenter": 307.2652,
        "meta_mean_anomaly": 234.6216,
        "meta_ephemeris_type": 0,
        "meta_classification_type": "U",
        "meta_norad_cat_id": 43706,
        "meta_element_set_no": 999,
        "meta_rev_at_epoch": 4802,
        "meta_bstar": 0,
        "meta_mean_motion_dot": 5.7e-07,
        "meta_mean_motion_ddot": 0,
        "tle_line1": "1 43706U 18093A   25344.57297926  .00000057  00000+0  00000+0 0  9996",
        "tle_line2": "2 43706  54.1726 188.6952 0006255 307.2652 234.6216  1.86228361 48024"
      },
      "geometry": {
        "type": "Point",
        "coordinates": [
          64.04847888636968,
          -48.71367614613549
        ]
      }
    },
    {
      "type": "Feature",
      "properties": {
        "norad_id": 43707,
        "name": "BEIDOU-3 M18 (C37)",
        "group": "gnss",
        "lat": -15.386290352537674,
        "lon": 177.20335206230743,
        "alt_km": 21513.4329882571,
        "timestamp": "2025-12-11T05:00:26.552777+00:00",
        "meta_object_name": "BEIDOU-3 M18 (C37)",
        "meta_object_id": "2018-093B",
        "meta_epoch": "2025-12-09T02:08:32.306784",
        "meta_mean_motion": 1.86226655,
        "meta_eccentricity": 0.00062934,
        "meta_inclination": 54.1729,
        "meta_ra_of_asc_node": 188.7377,
        "meta_arg_of_pericenter": 351.6926,
        "meta_mean_anomaly": 8.358,
        "meta_ephemeris_type": 0,
        "meta_classification_type": "U",
        "meta_norad_cat_id": 43707,
        "meta_element_set_no": 999,
        "meta_rev_at_epoch": 4799,
        "meta_bstar": 0,
        "meta_mean_motion_dot": 4.9e-07,
        "meta_mean_motion_ddot": 0,
        "tle_line1": "1 43707U 18093B   25343.08926281  .00000049  00000+0  00000+0 0  9996",
        "tle_line2": "2 43707  54.1729 188.7377 0006293 351.6926   8.3580  1.86226655 47998"
      },
      "geometry": {
        "type": "Point",
        "coordinates": [
          177.20335206230743,
          -15.386290352537674
        ]
      }
    },
    {
      "type": "Feature",
      "properties": {
        "norad_id": 43873,
        "name": "GPS BIII-1  (PRN 04)",
        "group": "gnss",
        "lat": 46.985694803943844,
        "lon": -127.66740229188602,
        "alt_km": 20155.218000912657,
        "timestamp": "2025-12-11T05:00:26.552791+00:00",
        "meta_object_name": "GPS BIII-1  (PRN 04)",
        "meta_object_id": "2018-109A",
        "meta_epoch": "2025-12-10T13:28:44.931360",
        "meta_mean_motion": 2.00553503,
        "meta_eccentricity": 0.00372579,
        "meta_inclination": 55.5664,
        "meta_ra_of_asc_node": 99.6325,
        "meta_arg_of_pericenter": 194.8351,
        "meta_mean_anomaly": 175.9534,
        "meta_ephemeris_type": 0,
        "meta_classification_type": "U",
        "meta_norad_cat_id": 43873,
        "meta_element_set_no": 999,
        "meta_rev_at_epoch": 5129,
        "meta_bstar": 0,
        "meta_mean_motion_dot": 8e-08,
        "meta_mean_motion_ddot": 0,
        "tle_line1": "1 43873U 18109A   25344.56163115  .00000008  00000+0  00000+0 0  9996",
        "tle_line2": "2 43873  55.5664  99.6325 0037257 194.8351 175.9534  2.00553503 51291"
      },
      "geometry": {
        "type": "Point",
        "coordinates": [
          -127.66740229188602,
          46.985694803943844
        ]
      }
    }
  ]
}